OBJECT_NAME,OBJECT_ID,EPOCH,MEAN_MOTION,ECCENTRICITY,INCLINATION,RA_OF_ASC_NODE,ARG_OF_PERICENTER,MEAN_ANOMALY,EPHEMERIS_TYPE,CLASSIFICATION_TYPE,NORAD_CAT_ID,ELEMENT_SET_NO,REV_AT_EPOCH,BSTAR,MEAN_MOTION_DOT,MEAN_MOTION_DDOT
TDRS 3,1988-091B,2026-06-05T21:50:14.648064,1.00278348,.0038559,12.6108,341.0745,356.6081,195.2642,0,U,19548,999,12527,0,-.291E-5,0
FLTSATCOM 8 (USA 46),1989-077A,2026-06-05T22:40:02.817120,1.00283341,.0004682,12.4248,351.2347,47.6063,320.9027,0,U,20253,999,26045,0,-.359E-5,0
SKYNET 4C,1990-079A,2026-06-05T17:28:33.851712,1.00272300,.00027829,13.3440,349.8904,89.1488,110.6155,0,U,20776,999,13077,0,.134E-5,0
TDRS 5,1991-054B,2026-06-05T17:51:14.816736,1.00270666,.00059361,14.0727,353.8625,277.9827,82.4645,0,U,21639,999,12759,0,.91E-6,0
TDRS 6,1993-003B,2026-06-05T21:51:14.551776,1.00275501,.0007278,14.1828,357.1454,179.3107,359.8422,0,U,22314,999,12229,0,-.288E-5,0
UFO 2 (USA 95),1993-056A,2026-06-05T17:36:35.210304,1.00271257,.00065316,11.8911,3.6214,4.4573,178.8461,0,U,22787,999,11843,0,.133E-5,0
USA 99 (MILSTAR-1 1),1994-009A,2026-06-04T03:39:56.267712,0.98720405,.00005146,17.6073,27.8410,214.9748,142.5652,0,U,22988,999,3281,0,.19E-6,0
UFO 4 (USA 108),1995-003A,2026-06-05T19:28:09.724224,1.00270764,.0003021,9.7063,13.2724,52.9392,292.2541,0,U,23467,999,11483,0,-.14E-6,0
TDRS 7,1995-035B,2026-06-05T19:46:30.366048,1.00267450,.00110574,13.3819,348.2712,75.0463,216.6602,0,U,23613,999,11313,0,-.231E-5,0
USA 115 (MILSTAR-1 2),1995-060A,2026-06-05T13:46:41.438208,1.00366744,.00016897,14.0687,3.8341,122.8035,235.9327,0,U,23712,999,3276,0,-.162E-5,0
INMARSAT 3-F1,1996-020A,2026-06-05T05:09:38.611008,0.99980968,.00035351,10.5774,46.7457,32.8954,168.8537,0,U,23839,999,11013,0,-.182E-5,0
INMARSAT 3-F2,1996-053A,2026-06-05T14:47:09.009600,1.00004576,.00066905,9.8322,54.0555,19.5356,202.7790,0,U,24307,999,10880,0,-.158E-5,0
INMARSAT 3-F3,1996-070A,2026-06-05T18:54:30.669408,0.99977624,.00035413,10.2947,49.7635,13.7743,168.8042,0,U,24674,999,10779,0,.117E-5,0
AMC-3,1997-050A,2026-06-05T11:15:41.914368,1.00107765,.00104649,8.1165,64.2198,111.2215,173.9176,0,U,24936,999,5231,0,-.232E-5,0
USA 134,1997-065A,2026-06-05T13:54:07.792704,1.00271398,.00037449,12.7702,21.8084,342.6783,345.8791,0,U,25019,999,3283,0,-.56E-6,0
INMARSAT 3-F5,1998-006B,2026-06-05T03:15:31.023936,1.00273304,.00049297,9.6662,53.3785,16.7168,178.3965,0,U,25153,999,10377,0,-.282E-5,0
ABS-6,1999-053A,2026-06-05T22:49:39.396288,1.00267883,.0003132,0.0268,43.9526,46.8774,304.9630,0,U,25924,999,9772,0,0,0
UFO 10 (USA 146),1999-063A,2026-06-02T23:48:29.573280,1.00273735,.00019407,9.8534,27.2872,17.6670,180.6760,0,U,25967,999,9720,0,-.181E-5,0
ASIASTAR,2000-016A,2026-06-05T15:43:39.697248,1.00268823,.00049991,9.1029,58.2782,20.1982,156.5127,0,U,26107,999,9580,0,-.323E-5,0
USA 149 (DSP 20),2000-024A,2026-06-05T08:07:30.853920,1.00270844,.00015941,13.1615,11.9358,320.8523,237.4684,0,U,26356,999,3279,0,.102E-5,0
TDRS 8,2000-034A,2026-06-05T17:41:05.509248,1.00269318,.00049482,12.6663,31.4211,10.1387,202.6435,0,U,26388,999,9506,0,-.186E-5,0
NSS-11,2000-059A,2026-06-05T21:11:52.939104,1.00272233,.0003197,2.0968,81.5232,354.5633,312.1854,0,U,26554,999,4117,0,.38E-6,0
USA 153,2000-065A,2026-06-05T16:36:13.884768,1.00272674,.00032113,11.6051,35.5167,43.7533,198.4191,0,U,26575,999,3281,0,-.315E-5,0
AMC-6,2000-067A,2026-06-05T18:00:28.932768,1.00270689,.00037701,0.1225,82.8827,359.5277,306.8563,0,U,26580,999,9377,0,.101E-5,0
USA 157 (MILSTAR-2 2),2001-009A,2026-06-05T17:56:14.338752,1.00270623,.00389022,11.5298,19.8339,176.9000,176.4358,0,U,26715,999,3282,0,.118E-5,0
USA 159 (DSP 21),2001-033A,2026-06-05T11:35:11.523264,0.99201301,.00014843,12.7708,16.5213,115.6522,249.7308,0,U,26880,999,3284,0,-.244E-5,0
INTELSAT 902 (IS-902),2001-039A,2026-06-05T04:43:25.381920,1.00271322,.0004263,6.0882,71.9274,0.2969,202.1539,0,U,26900,999,9057,0,-.272E-5,0
USA 164 (MILSTAR-2 3),2002-001A,2026-06-06T00:12:20.487744,1.00273935,.009943,11.1660,21.9736,8.2354,246.2335,0,U,27168,999,3284,0,.106E-5,0
INTELSAT 904 (IS-904),2002-007A,2026-06-05T06:01:34.581216,1.00270624,.000723,6.8900,69.3272,359.5843,243.6787,0,U,27380,999,5164,0,-.215E-5,0
DIRECTV 5 (TEMPO 1),2002-023A,2026-06-05T21:32:53.812320,1.00271802,.000348,4.8484,75.4503,7.2586,24.7378,0,U,27426,999,8801,0,-.45E-6,0
INTELSAT 905 (IS-905),2002-027A,2026-06-05T11:20:38.810688,1.00272550,.00041976,6.7238,69.9406,12.6738,204.2394,0,U,27438,999,5124,0,.105E-5,0
GALAXY 3C (G-3C),2002-030A,2026-06-05T21:37:15.892032,1.00271858,.0001916,3.7011,78.1277,30.0948,15.5711,0,U,27445,999,4638,0,-.14E-5,0
INTELSAT 906 (IS-906),2002-041A,2026-06-05T19:57:21.766752,1.00270686,.0004699,5.7751,73.0591,357.6074,187.0703,0,U,27513,999,8691,0,.25E-6,0
NIMIQ 2,2002-062A,2026-06-05T20:09:47.498976,1.00272146,.00058714,9.4197,57.0201,14.5678,15.9339,0,U,27632,999,4407,0,-.59E-6,0
USA 167,2003-008A,2026-06-05T06:48:38.695680,1.00274694,.00040927,10.9375,43.5144,316.7807,233.8431,0,U,27691,999,665,0,.12E-6,0
USA 169 (MILSTAR-2 4),2003-012A,2026-06-05T22:47:47.076288,1.00271279,.0101235,12.3323,29.9317,8.7894,349.7403,0,U,27711,999,3283,0,-.227E-5,0
ASIASAT 4,2003-014A,2026-06-05T15:15:38.621952,1.00270914,.00028676,4.6760,75.8880,4.0726,190.5427,0,U,27718,999,4518,0,-.21E-5,0
HELLAS-SAT 2,2003-020A,2026-06-05T13:28:08.238144,1.00272175,.00027988,7.3255,68.0223,3.0072,14.9942,0,U,27811,999,4273,0,-.73E-6,0
THURAYA-2,2003-026A,2026-06-05T18:10:08.544576,1.00272075,.00032602,8.8234,32.0283,2.1973,176.4856,0,U,27825,999,8423,0,.135E-5,0
OPTUS C1,2003-028B,2026-06-05T14:42:42.304896,1.00270675,.00058233,6.8604,69.5492,0.9482,199.9354,0,U,27831,999,5294,0,-.14E-5,0
USA 170,2003-040A,2026-06-04T19:47:04.795584,1.00277379,.00021217,10.4740,48.0645,31.6674,134.5548,0,U,27875,999,3287,0,.135E-5,0
GALAXY 13 (HORIZONS-1),2003-044A,2026-06-05T23:04:15.495744,1.00272172,.0002079,1.3913,83.9931,344.4924,21.9442,0,U,27954,999,4646,0,.145E-5,0
YAMAL 202,2003-053A,2026-06-05T14:47:21.750144,1.00272806,.00033267,6.3158,71.0752,345.0447,223.3502,0,U,28089,999,8258,0,-.68E-6,0
UFO 11 (USA 174),2003-057A,2026-06-05T17:44:36.119616,1.00274267,.00024038,8.9311,33.8888,36.0841,165.8836,0,U,28117,999,8233,0,-.95E-6,0
USA 176 (DSP 22),2004-004A,2026-06-05T13:15:54.409248,1.00409767,.00011383,12.0462,26.1555,311.1128,62.8077,0,U,28158,999,3282,0,-.288E-5,0
ABS-4 (MOBISAT-1),2004-007A,2026-06-05T19:39:49.036320,1.00270964,.00053942,6.0127,72.1446,2.6256,175.3981,0,U,28184,999,5222,0,.51E-6,0
INTELSAT 10-02,2004-022A,2026-06-05T22:04:06.763872,1.00270378,.000027,0.0044,332.5454,174.1769,77.6479,0,U,28358,999,8044,0,.2E-7,0
ANIK F2,2004-027A,2026-06-05T23:15:18.525024,1.00271965,.0004443,3.2574,79.5945,0.8983,51.6009,0,U,28378,999,4115,0,-.37E-6,0
AMC-15,2004-041A,2026-06-05T23:17:03.356736,1.00271726,.0002444,0.0296,304.3257,131.6539,62.6321,0,U,28446,999,7919,0,-.76E-6,0
NSS-10,2005-003A,2026-06-05T06:49:35.200416,1.00273018,.00031732,6.4194,70.5979,0.6161,247.4525,0,U,28526,999,5303,0,-.24E-5,0
INMARSAT 4-F1,2005-009A,2026-06-05T21:12:30.378816,1.00271896,.0002903,5.1522,42.7357,35.8787,311.9436,0,U,28628,999,7755,0,.44E-6,0
DIRECTV 8,2005-019A,2026-06-05T23:13:03.741024,1.00269699,.0003071,0.0170,344.9483,94.3455,44.3137,0,U,28659,999,7696,0,0,0
GALAXY 28 (G-28),2005-022A,2026-06-05T20:13:59.511360,1.00270946,.0002751,3.2705,79.0674,354.6517,96.9387,0,U,28702,999,5186,0,-.188E-5,0
THAICOM 4,2005-028A,2026-06-05T22:33:51.400800,1.00272068,.0002048,0.2157,86.0989,345.2398,281.0043,0,U,28786,999,5213,0,-.349E-5,0
ANIK F1R,2005-036A,2026-06-05T21:33:46.226880,1.00272862,.0004432,4.2833,76.7193,1.7548,32.0117,0,U,28868,999,4634,0,-.63E-6,0
SYRACUSE 3A,2005-041B,2026-06-06T00:07:38.923104,1.00269966,.0003123,4.6154,75.9729,336.5359,250.4763,0,U,28885,999,7563,0,.142E-5,0
INMARSAT 4-F2,2005-044A,2026-06-05T22:45:09.827424,1.00271038,.0003211,5.0795,43.7123,31.0156,304.4236,0,U,28899,999,7540,0,-.249E-5,0
METEOSAT-9 (MSG-2),2005-049B,2026-06-05T20:15:21.955104,1.00267887,.00023261,9.3350,54.2780,40.8445,148.6919,0,U,28912,999,688,0,.135E-5,0
EUTELSAT 174A,2005-052A,2026-06-05T21:11:22.986816,1.00269574,.0006524,4.1903,76.6655,358.9257,310.5706,0,U,28924,999,5221,0,.21E-6,0
ECHOSTAR 10,2006-003A,2026-06-05T09:34:14.248992,1.00272133,.00014333,0.0172,339.0516,94.6497,213.5027,0,U,28935,999,7434,0,-.43E-6,0
SPAINSAT,2006-007A,2026-06-05T09:05:43.564416,1.00273583,.0005058,0.5320,86.7448,346.3258,286.9896,0,U,28945,999,7410,0,-.204E-5,0
JCSAT-5A,2006-010A,2026-06-05T22:42:02.626272,1.00271895,.0002168,1.0796,84.3441,4.9099,277.6812,0,U,29045,999,7365,0,-.315E-5,0
ASTRA 1KR,2006-012A,2026-06-05T20:27:08.573184,1.00271569,.0003667,0.4439,83.2082,349.0647,147.7872,0,U,29055,999,4558,0,.132E-5,0
GALAXY 16 (G-16),2006-023A,2026-06-05T23:11:54.208032,1.00272353,.0002817,0.0286,192.0012,240.6960,70.6719,0,U,29236,999,7286,0,-.114E-5,0
EUTELSAT 33F,2006-032A,2026-06-06T00:15:38.646144,1.00273875,.0003577,1.6321,82.3693,348.3911,220.6872,0,U,29270,999,4719,0,.168E-5,0
JCSAT-3A,2006-033A,2026-06-05T22:40:47.745120,1.00271984,.0002213,0.0179,300.4535,141.1159,281.0026,0,U,29272,999,4762,0,-.332E-5,0
KOREASAT 5 (MUGUNGWHA 5),2006-034A,2026-06-05T22:36:33.151104,1.00273728,.0001427,1.7556,83.1214,31.6946,231.7459,0,U,29349,999,4120,0,-.345E-5,0
DIRECTV 9S,2006-043A,2026-06-05T23:18:10.748736,1.00271874,.0005149,2.3912,81.0371,4.6639,57.0559,0,U,29494,999,5127,0,-.101E-5,0
OPTUS D1,2006-043B,2026-06-05T21:05:01.097088,1.00272343,.000378,3.0052,79.7949,351.0399,291.7254,0,U,29495,999,7200,0,-.171E-5,0
BADR-4,2006-051A,2026-06-04T17:50:03.090912,1.00450212,.00078927,1.9707,81.2738,161.5231,306.4291,0,U,29526,999,5114,0,.167E-5,0
WILDBLUE-1,2006-054A,2026-06-05T23:15:18.525024,1.00272585,.0001639,2.7736,80.6236,352.9353,58.4538,0,U,29643,999,5368,0,-.37E-6,0
SKYNET 5A,2007-007B,2026-06-05T20:52:21.698976,1.00273261,.0003876,5.2731,73.8761,6.5041,222.2138,0,U,30794,999,7058,0,-.259E-5,0
